NORAD_CAT_ID,OBJECT_NAME,OBJECT_TYPE,EPOCH,MEAN_MOTION,ECCENTRICITY,INCLINATION,RA_OF_ASC_NODE,ARG_OF_PERICENTER,MEAN_ANOMALY,BSTAR,MEAN_MOTION_DOT,MEAN_MOTION_DDOT,TLE_LINE0,TLE_LINE1,TLE_LINE2,SEMIMAJOR_AXIS,PERIOD,APOGEE,PERIGEE,DECAYED
53604.0,STARLINK-4690,PAYLOAD,2022-12-25 17:49:55,15.08839152,0.0001906,53.2179,91.1763,35.8732,324.2388,5.165e-05,5.34e-06,0.0,0 STARLINK-4690,1 53604U 22104S   22359.74299931  .00000534  00000-0  51650-4 0  9995,2 53604  53.2179  91.1763 0001906  35.8732 324.2388 15.08839152 19066,6917.8830000000025,95.438,541.067,538.429,0.0
53604.0,STARLINK-4690,PAYLOAD,2022-12-26 14:29:55,15.08837752,0.0001945,53.2184,87.3097,40.5307,319.583,6.3594e-05,7.24e-06,0.0,0 STARLINK-4690,1 53604U 22104S   22360.60411854  .00000724  00000-0  63594-4 0  9993,2 53604  53.2184  87.3097 0001945  40.5307 319.5830 15.08837752 18504,6917.887,95.438,541.0980000000002,538.4069999999998,0.0
53604.0,STARLINK-4690,PAYLOAD,2022-12-26 17:40:42,15.08831068,0.0001954,53.2185,86.7148,40.6133,319.5005,1.4226e-05,-6.2e-07,0.0,0 STARLINK-4690,1 53604U 22104S   22360.73660675 -.00000062  00000-0  14226-4 0  9998,2 53604  53.2185  86.7148 0001954  40.6133 319.5005 15.08831068 19210,6917.908,95.438,541.124,538.4209999999998,0.0
53604.0,STARLINK-4690,PAYLOAD,2022-12-26 22:26:52,15.08834708,0.0001964,53.2181,85.8232,40.2638,319.8499,3.7399e-05,3.07e-06,0.0,0 STARLINK-4690,1 53604U 22104S   22360.93532460  .00000307  00000-0  37399-4 0  9997,2 53604  53.2181  85.8232 0001964  40.2638 319.8499 15.08834708 18557,6917.897,95.438,541.12,538.403,0.0
53604.0,STARLINK-4690,PAYLOAD,2022-12-27 12:45:19,15.08851275,0.0002057,53.2182,83.1466,39.1277,320.9863,0.00014898,2.084e-05,0.0,0 STARLINK-4690,1 53604U 22104S   22361.53147050  .00002084  00000-0  14898-3 0  9993,2 53604  53.2182  83.1466 0002057  39.1277 320.9863 15.08851275 18644,6917.846,95.437,541.134,538.288,0.0
53604.0,STARLINK-4690,PAYLOAD,2022-12-28 14:11:29,15.08850287,0.0001874,53.219,78.3892,49.3954,310.7201,-7.7659e-05,-1.524e-05,0.0,0 STARLINK-4690,1 53604U 22104S   22362.59131515 -.00001524  00000-0 -77659-4 0  9994,2 53604  53.2190  78.3892 0001874  49.3954 310.7201 15.08850287 18806,6917.849,95.437,541.01,538.418,0.0
53604.0,STARLINK-4690,PAYLOAD,2022-12-29 14:02:19,15.08818627,0.0002215,53.2193,73.9282,40.967,319.1488,-0.00017652,-3.095e-05,0.0,0 STARLINK-4690,1 53604U 22104S   22363.58494648 -.00003095  00000-0 -17652-3 0  9994,2 53604  53.2193  73.9282 0002215  40.9670 319.1488 15.08818627 18953,6917.946,95.439,541.3430000000002,538.278,0.0
53604.0,STARLINK-4690,PAYLOAD,2022-12-29 21:59:14,15.08831784,0.0002151999999999,53.219,72.4413,41.3598,318.7556,-0.00016374,-2.893e-05,0.0,0 STARLINK-4690,1 53604U 22104S   22363.91614010 -.00002893  00000-0 -16374-3 0  9993,2 53604  53.2190  72.4413 0002152  41.3598 318.7556 15.08831784 19001,6917.906,95.438,541.259,538.2819999999998,0.0
53604.0,STARLINK-4690,PAYLOAD,2022-12-30 12:17:41,15.08834534,0.0002106999999999,53.2179,69.766,39.6725,320.4421,0.00013065,1.791e-05,0.0,0 STARLINK-4690,1 53604U 22104S   22364.51229164  .00001791  00000-0  13065-3 0  9990,2 53604  53.2179  69.7660 0002107  39.6725 320.4421 15.08834534 19099,6917.897,95.438,541.22,538.304,0.0
53604.0,STARLINK-4690,PAYLOAD,2022-12-30 21:49:59,15.08848626,0.0002158,53.2186,67.9813,41.8795,318.2362,0.00031367,4.709e-05,0.0,0 STARLINK-4690,1 53604U 22104S   22364.90971895  .00004709  00000-0  31367-3 0  9995,2 53604  53.2186  67.9813 0002158  41.8795 318.2362 15.08848626 19158,6917.854,95.437,541.212,538.226,0.0
53604.0,STARLINK-4690,PAYLOAD,2022-12-31 10:33:04,15.08855922,0.0001950999999999,53.2189,65.6023,32.4142,327.69699999999995,0.00032094,4.826e-05,0.0,0 STARLINK-4690,1 53604U 22104S   22365.43963117  .00004826  00000-0  32094-3 0  9990,2 53604  53.2189  65.6023 0001951  32.4142 327.6970 15.08855922 19922,6917.831999999999,95.437,541.0459999999998,538.347,0.0
53604.0,STARLINK-4690,PAYLOAD,2022-12-31 13:43:50,15.08850234,0.0002002,53.2176,65.0096,34.2032,325.9089,0.00025399,3.758e-05,0.0,0 STARLINK-4690,1 53604U 22104S   22365.57211612  .00003758  00000-0  25399-3 0  9994,2 53604  53.2176  65.0096 0002002  34.2032 325.9089 15.08850234 19943,6917.849,95.437,541.099,538.3290000000002,0.0
53604.0,STARLINK-4690,PAYLOAD,2023-01-01 04:02:20,15.08837242,0.0002092,53.2177,62.3326,36.5932,323.5203,9.4826e-05,1.221e-05,0.0,0 STARLINK-4690,1 53604U 22104S   23001.16828738  .00001221  00000-0  94826-4 0  9995,2 53604  53.2177  62.3326 0002092  36.5932 323.5203 15.08837242 19343,6917.889,95.438,541.201,538.307,0.0
53604.0,STARLINK-4690,PAYLOAD,2023-01-01 10:23:53,15.08823603,0.0001884,53.221,61.1422,24.8002,335.3081,-5.4622e-05,-1.157e-05,0.0,0 STARLINK-4690,1 53604U 22104S   23001.43326039 -.00001157  00000-0 -54622-4 0  9992,2 53604  53.2210  61.1422 0001884  24.8002 335.3081 15.08823603 19386,6917.931,95.439,541.099,538.492,0.0
53604.0,STARLINK-4690,PAYLOAD,2023-01-02 03:53:08,15.08833358,0.0002145,53.2183,57.8709,38.9617,321.1529,-0.00027933,-4.73e-05,0.0,0 STARLINK-4690,1 53604U 22104S   23002.16190443 -.00004730  00000-0 -27933-3 0  9995,2 53604  53.2183  57.8709 0002145  38.9617 321.1529 15.08833358 19494,6917.901,95.438,541.25,538.2819999999998,0.0
53604.0,STARLINK-4690,PAYLOAD,2023-01-02 10:14:40,15.08840853,0.0002201,53.2188,56.683,38.0066,322.1081,-0.00018062,-3.162e-05,0.0,0 STARLINK-4690,1 53604U 22104S   23002.42685744 -.00003162  00000-0 -18062-3 0  9998,2 53604  53.2188  56.6830 0002201  38.0066 322.1081 15.08840853 19530,6917.878000000002,95.438,541.265,538.22,0.0
53604.0,STARLINK-4690,PAYLOAD,2023-01-03 03:43:54,15.08855862,0.000215,53.2183,53.4101,33.4471,326.6656,-0.00014015,-2.519e-05,0.0,0 STARLINK-4690,1 53604U 22104S   23003.15548624 -.00002519  00000-0 -14015-3 0  9993,2 53604  53.2183  53.4101 0002150  33.4471 326.6656 15.08855862 19648,6917.831999999999,95.437,541.184,538.21,0.0
53604.0,STARLINK-4690,PAYLOAD,2023-01-03 10:05:26,15.08854259,0.0002236,53.2184,52.2209,35.312,324.8019,-0.00018736,-3.27e-05,0.0,0 STARLINK-4690,1 53604U 22104S   23003.42044736 -.00003270  00000-0 -18736-3 0  9997,2 53604  53.2184  52.2209 0002236  35.3120 324.8019 15.08854259 20376,6917.837,95.437,541.249,538.155,0.0
53604.0,STARLINK-4690,PAYLOAD,2023-01-04 11:31:37,15.08845302,0.0002171,53.2193,47.4641,38.1681,321.9464,0.00022342,3.27e-05,0.0,0 STARLINK-4690,1 53604U 22104S   23004.48029497  .00003270  00000-0  22342-3 0  9997,2 53604  53.2193  47.4641 0002171  38.1681 321.9464 15.08845302 19844,6917.864000000001,95.437,541.231,538.227,0.0
53604.0,STARLINK-4690,PAYLOAD,2023-01-04 19:28:32,15.08859352,0.0002251999999999,53.2191,45.9774,36.7567,323.3579,0.00021898,3.2e-05,0.0,0 STARLINK-4690,1 53604U 22104S   23004.81148437  .00003200  00000-0  21898-3 0  9998,2 53604  53.2191  45.9774 0002252  36.7567 323.3579 15.08859352 19897,6917.821,95.436,541.244,538.128,0.0
53604.0,STARLINK-4690,PAYLOAD,2023-01-05 12:57:46,15.08859074,0.0002315,53.218,42.7059,36.0116,324.1032,0.00021824,3.189e-05,0.0,0 STARLINK-4690,1 53604U 22104S   23005.54012071  .00003189  00000-0  21824-3 0  9998,2 53604  53.2180  42.7059 0002315  36.0116 324.1032 15.08859074 20008,6917.821999999999,95.436,541.289,538.086,0.0
53604.0,STARLINK-4690,PAYLOAD,2023-01-06 11:13:10,15.0883268,0.0001651,53.2179,38.5427,17.8864,342.2186,-0.0003987,-6.626e-05,0.0,0 STARLINK-4690,1 53604U 22104S   23006.46748231 -.00006626  00000-0 -39870-3 0  9995,2 53604  53.2179  38.5427 0001651  17.8864 342.2186 15.08832680 20147,6917.903,95.438,540.91,538.626,0.0
53604.0,STARLINK-4690,PAYLOAD,2023-01-07 01:31:39,15.0883735,0.0002258,53.2172,35.866,27.5886,332.5226,-3.980300000000001e-05,-9.22e-06,0.0,0 STARLINK-4690,1 53604U 22104S   23007.06364614 -.00000922  00000-0 -39803-4 0  9991,2 53604  53.2172  35.8660 0002258  27.5886 332.5226 15.08837350 20927,6917.888000000001,95.438,541.316,538.191,0.0
53604.0,STARLINK-4690,PAYLOAD,2023-01-07 11:03:57,15.08846811,0.0002006,53.2169,34.0818,32.1038,328.0076,0.00044337,6.777e-05,0.0,0 STARLINK-4690,1 53604U 22104S   23007.46108536  .00006777  00000-0  44337-3 0  9993,2 53604  53.2169  34.0818 0002006  32.1038 328.0076 15.08846811 20296,6917.86,95.437,541.112,538.337,0.0
53604.0,STARLINK-4690,PAYLOAD,2023-01-07 19:00:54,15.08833557,0.0001989,53.2156,32.5967,23.7803,336.3280000000001,0.00035065,5.296e-05,0.0,0 STARLINK-4690,1 53604U 22104S   23007.79229264  .00005296  00000-0  35065-3 0  9994,2 53604  53.2156  32.5967 0001989  23.7803 336.3280 15.08833557 20343,6917.9,95.438,541.141,538.389,0.0
53604.0,STARLINK-4690,PAYLOAD,2023-01-08 10:54:45,15.08843987,0.0002232,53.2166,29.6213,33.0345,327.0786,0.00046008,7.042e-05,0.0,0 STARLINK-4690,1 53604U 22104S   23008.45469442  .00007042  00000-0  46008-3 0  9992,2 53604  53.2166  29.6213 0002232  33.0345 327.0786 15.08843987 21136,6917.868,95.437,541.2769999999998,538.189,0.0
53604.0,STARLINK-4690,PAYLOAD,2023-01-08 18:51:41,15.08840873,0.0002326,53.216,28.1345,35.5195,324.5952,0.000328,4.936e-05,0.0,0 STARLINK-4690,1 53604U 22104S   23008.78589616  .00004936  00000-0  32800-3 0  9998,2 53604  53.2160  28.1345 0002326  35.5195 324.5952 15.08840873 21187,6917.8780000000015,95.437,541.352,538.134,0.0
53604.0,STARLINK-4690,PAYLOAD,2023-01-09 01:13:13,15.08842786,0.0002315,53.2163,26.9451,35.5377,324.5769,0.00037986,5.763e-05,0.0,0 STARLINK-4690,1 53604U 22104S   23009.05085643  .00005763  00000-0  37986-3 0  9999,2 53604  53.2163  26.9451 0002315  35.5377 324.5769 15.08842786 20533,6917.871999999999,95.437,541.3380000000002,538.135,0.0
53604.0,STARLINK-4690,PAYLOAD,2023-01-09 10:45:32,15.08843428,0.000232,53.2167,25.161,35.5923,324.5224,0.00028877,4.311e-05,0.0,0 STARLINK-4690,1 53604U 22104S   23009.44829645  .00004311  00000-0  28877-3 0  9997,2 53604  53.2167  25.1610 0002320  35.5923 324.5224 15.08843428 21281,6917.87,95.437,541.34,538.13,0.0
